IRIDIUM 154             
1 43574U 18061F   26199.27859348  .00000020  00000+0  22341-6 0  9991
2 43574  86.3939  43.8012 0002307  89.7275 270.4186 14.34217461417868
IRIDIUM 163             
1 43575U 18061G   26199.12002930  .00000027  00000+0  26889-5 0  9990
2 43575  86.3937  43.7818 0002124  86.8282 273.3157 14.34217381417819
IRIDIUM 156             
1 43576U 18061H   26199.09465694  .00000087  00000+0  24059-4 0  9999
2 43576  86.3937  43.7996 0002114  93.5976 266.5462 14.34218395417809
IRIDIUM 164             
1 43577U 18061J   26199.07563062  .00000059  00000+0  13904-4 0  9992
2 43577  86.3938  43.8487 0002364  89.2647 270.8820 14.34218343417844
IRIDIUM 159             
1 43578U 18061K   26199.11368552  .00000059  00000+0  14078-4 0  9998
2 43578  86.3935  43.7688 0002130  86.3256 273.8184 14.34217862417817
IRIDIUM 180             
1 43922U 19002A   26199.32248773  .00000108  00000+0  31351-4 0  9990
2 43922  86.3995 340.5823 0002181  91.3202 268.8244 14.34218095393451
IRIDIUM 176             
1 43923U 19002B   26198.88050815  .00000387  00000+0  57540-4 0  9996
2 43923  86.6115 340.7060 0002336  91.0383 269.1102 14.72251076403764
IRIDIUM 168             
1 43924U 19002C   26199.10684088  .00000046  00000+0  94175-5 0  9996
2 43924  86.3998 340.7504 0002176  90.3053 269.8392 14.34217087393401
IRIDIUM 173             
1 43925U 19002D   26198.88484912 -.00000071  00000+0 -32351-4 0  9992
2 43925  86.3988 340.7312 0002035  92.3798 267.7631 14.34217599393355
IRIDIUM 169             
1 43926U 19002E   26199.20451488  .00000066  00000+0  14893-4 0  9995
2 43926  86.4237  12.2209 0001998 104.3949 255.7471 14.38605655394683
IRIDIUM 172             
1 43927U 19002F   26198.94827529  .00000064  00000+0  15872-4 0  9995
2 43927  86.3993 340.7123 0002183  91.2138 268.9308 14.34217952393372
IRIDIUM 175             
1 43928U 19002G   26199.19010783  .00000163  00000+0  42058-4 0  9996
2 43928  86.4509 277.5624 0005442 109.6422 250.5367 14.43628119403455
IRIDIUM 171             
1 43929U 19002H   26199.13855274  .00000061  00000+0  14723-4 0  9998
2 43929  86.4004 340.9422 0002261  94.7804 265.3650 14.34217922393397
IRIDIUM 170             
1 43930U 19002J   26198.88667689  .00000381  00000+0  56537-4 0  9996
2 43930  86.6114 340.7055 0002228  87.9110 272.2363 14.72251641403770
IRIDIUM 167             
1 43931U 19002K   26198.92290452  .00000045  00000+0  91589-5 0  9996
2 43931  86.3995 340.7455 0002341  98.3553 261.7909 14.34217847393362
IRIDIUM 181             
1 56726U 23068S   26199.09669267  .00000144  00000+0  36829-4 0  9997
2 56726  86.4475  43.8640 0002395  84.5500 275.5974 14.43308061166897
IRIDIUM 177             
1 56727U 23068T   26198.81384835  .00000537  00000+0  67440-4 0  9991
2 56727  86.1987 314.2513 0002196  96.7148 263.4323 14.80026424170899
IRIDIUM 174             
1 56728U 23068U   26199.28202474  .00000327  00000+0  47963-4 0  9997
2 56728  86.6122 340.6908 0001918  90.0176 270.1261 14.72256883170594
IRIDIUM 178             
1 56729U 23068V   26199.20851402  .00000175  00000+0  19714-4 0  9995
2 56729  86.6538  12.3943 0002283  91.3531 268.7953 14.80028862170957
IRIDIUM 179             
1 56730U 23068W   26199.00033628  .00000104  00000+0  10250-4 0  9995
2 56730  86.6768  21.5516 0002365  93.5918 266.5574 14.80023411170923
