OBJECT_NAME,OBJECT_ID,EPOCH,MEAN_MOTION,ECCENTRICITY,INCLINATION,RA_OF_ASC_NODE,ARG_OF_PERICENTER,MEAN_ANOMALY,EPHEMERIS_TYPE,CLASSIFICATION_TYPE,NORAD_CAT_ID,ELEMENT_SET_NO,REV_AT_EPOCH,BSTAR,MEAN_MOTION_DOT,MEAN_MOTION_DDOT
IRIDIUM 154,2018-061F,2026-07-18T06:41:10.476672,14.34217461,.00023075,86.3939,43.8012,89.7275,270.4186,0,U,43574,999,41786,.22341E-6,.2E-6,0
IRIDIUM 163,2018-061G,2026-07-18T02:52:50.531520,14.34217381,.0002124,86.3937,43.7818,86.8282,273.3157,0,U,43575,999,41781,.268892E-5,.27E-6,0
IRIDIUM 156,2018-061H,2026-07-18T02:16:18.359616,14.34218395,.00021147,86.3937,43.7996,93.5976,266.5462,0,U,43576,999,41780,.24059446E-4,.87E-6,0
IRIDIUM 164,2018-061J,2026-07-18T01:48:54.485568,14.34218343,.00023641,86.3938,43.8487,89.2647,270.8820,0,U,43577,999,41784,.13904332E-4,.59E-6,0
IRIDIUM 159,2018-061K,2026-07-18T02:43:42.428928,14.34217862,.00021307,86.3935,43.7688,86.3256,273.8184,0,U,43578,999,41781,.14078034E-4,.59E-6,0
IRIDIUM 180,2019-002A,2026-07-18T07:44:22.939872,14.34218095,.00021819,86.3995,340.5823,91.3202,268.8244,0,U,43922,999,39345,.31350951E-4,.108E-5,0
IRIDIUM 176,2019-002B,2026-07-17T21:07:55.904160,14.72251076,.00023369,86.6115,340.7060,91.0383,269.1102,0,U,43923,999,40376,.57540493E-4,.387E-5,0
IRIDIUM 168,2019-002C,2026-07-18T02:33:51.052032,14.34217087,.00021765,86.3998,340.7504,90.3053,269.8392,0,U,43924,999,39340,.9417457E-5,.46E-6,0
IRIDIUM 173,2019-002D,2026-07-17T21:14:10.963968,14.34217599,.00020356,86.3988,340.7312,92.3798,267.7631,0,U,43925,999,39335,-.32350865E-4,-.71E-6,0
IRIDIUM 169,2019-002E,2026-07-18T04:54:30.085632,14.38605655,.00019983,86.4237,12.2209,104.3949,255.7471,0,U,43926,999,39468,.14892672E-4,.66E-6,0
IRIDIUM 172,2019-002F,2026-07-17T22:45:30.985056,14.34217952,.0002183,86.3993,340.7123,91.2138,268.9308,0,U,43927,999,39337,.15871898E-4,.64E-6,0
IRIDIUM 175,2019-002G,2026-07-18T04:33:45.316512,14.43628119,.00054423,86.4509,277.5624,109.6422,250.5367,0,U,43928,999,40345,.42057648E-4,.163E-5,0
IRIDIUM 171,2019-002H,2026-07-18T03:19:30.956736,14.34217922,.00022612,86.4004,340.9422,94.7804,265.3650,0,U,43929,999,39339,.1472303E-4,.61E-6,0
IRIDIUM 170,2019-002J,2026-07-17T21:16:48.883296,14.72251641,.00022285,86.6114,340.7055,87.9110,272.2363,0,U,43930,999,40377,.56537468E-4,.381E-5,0
IRIDIUM 167,2019-002K,2026-07-17T22:08:58.950528,14.34217847,.00023411,86.3995,340.7455,98.3553,261.7909,0,U,43931,999,39336,.9158856E-5,.45E-6,0
IRIDIUM 181,2023-068S,2026-07-18T02:19:14.246688,14.43308061,.00023954,86.4475,43.8640,84.5500,275.5974,0,U,56726,999,16689,.36828772E-4,.144E-5,0
IRIDIUM 177,2023-068T,2026-07-17T19:31:56.497440,14.80026424,.00021965,86.1987,314.2513,96.7148,263.4323,0,U,56727,999,17089,.67439916E-4,.537E-5,0
IRIDIUM 174,2023-068U,2026-07-18T06:46:06.937536,14.72256883,.00019186,86.6122,340.6908,90.0176,270.1261,0,U,56728,999,17059,.47963377E-4,.327E-5,0
IRIDIUM 178,2023-068V,2026-07-18T05:00:15.611328,14.80028862,.00022833,86.6538,12.3943,91.3531,268.7953,0,U,56729,999,17095,.19714268E-4,.175E-5,0
IRIDIUM 179,2023-068W,2026-07-18T00:00:29.054592,14.80023411,.00023653,86.6768,21.5516,93.5918,266.5574,0,U,56730,999,17092,.10249527E-4,.104E-5,0
